[{"OBJECT_NAME":"STARLINK-4594","OBJECT_ID":"2022-104BC","EPOCH":"2026-03-09T17:03:07.355520","MEAN_MOTION":15.08838209,"ECCENTRICITY":0.00012271,"INCLINATION":53.2169,"RA_OF_ASC_NODE":223.6608,"ARG_OF_PERICENTER":83.5338,"MEAN_ANOMALY":276.5794,"EPHEMERIS_TYPE":0,"CLASSIFICATION_TYPE":"U","NORAD_CAT_ID":53638,"ELEMENT_SET_NO":999,"REV_AT_EPOCH":19623,"BSTAR":2.762886e-6,"MEAN_MOTION_DOT":-2.44e-6,"MEAN_MOTION_DDOT":0},{"OBJECT_NAME":"UPPER FREE FLYER","OBJECT_ID":"2018-099F","EPOCH":"2026-03-09T16:53:56.769792","MEAN_MOTION":15.10728091,"ECCENTRICITY":0.00115819,"INCLINATION":97.4495,"RA_OF_ASC_NODE":120.4613,"ARG_OF_PERICENTER":289.4209,"MEAN_ANOMALY":70.5769,"EPHEMERIS_TYPE":0,"CLASSIFICATION_TYPE":"U","NORAD_CAT_ID":43763,"ELEMENT_SET_NO":999,"REV_AT_EPOCH":39752,"BSTAR":0.00029221901,"MEAN_MOTION_DOT":4.788e-5,"MEAN_MOTION_DDOT":0}]
